ONEWEB-0050             
1 45453U 20020AF  26046.05758098  .00001863  00000+0  19146-3 0  9996
2 45453  88.9192 249.8549 0005527  69.2044 290.9777 14.89913612322197
ONEWEB-0034             
1 45454U 20020AG  26046.05065712  .00000181  00000+0  47448-3 0  9999
2 45454  87.8830  45.3515 0001848  88.2552 271.8788 13.11416858286580
ONEWEB-0060             
1 45455U 20020AH  26046.02183207 -.00000648  00000+0 -18639-2 0  9996
2 45455  87.8822  45.3701 0000869  76.9242 283.1983 13.11416276286533
ONEWEB-0086             
1 45456U 20020AJ  26046.00064995  .00000070  00000+0  16057-3 0  9997
2 45456  87.8833  45.3592 0001289 105.0580 255.0691 13.11415537286599
ONEWEB-0088             
1 45457U 20020AK  26045.97861717  .00000601  00000+0  16611-2 0  9995
2 45457  87.8848  45.3254 0001909  80.2310 279.9033 13.11417631286520
ONEWEB-0102             
1 47258U 20100A   26045.92578682 -.00000211  00000+0 -62255-3 0  9991
2 47258  87.8960  14.9477 0001692  87.9410 272.1913 13.12442241248693
ONEWEB-0109             
1 47259U 20100B   26045.93425041 -.00000493  00000+0 -14068-2 0  9993
2 47259  87.8970  14.9184 0001896  87.5119 272.6227 13.12442415248526
ONEWEB-0110             
1 47260U 20100C   26046.26632069  .00000248  00000+0  65354-3 0  9993
2 47260  87.8968  14.8370 0001613  87.1318 272.9995 13.12445015248732
ONEWEB-0111             
1 47261U 20100D   26045.91561790  .00000077  00000+0  17976-3 0  9994
2 47261  87.8970  14.9254 0001758  79.2665 280.8661 13.12441852248525
ONEWEB-0114             
1 47262U 20100E   26045.86988157 -.00000223  00000+0 -65599-3 0  9998
2 47262  87.8968  14.9301 0002170  84.6062 275.5314 13.12445470248476
ONEWEB-0117             
1 47263U 20100F   26045.93763905 -.00000402  00000+0 -11527-2 0  9999
2 47263  87.8968  14.9118 0001843  83.0941 277.0397 13.12443926248492
ONEWEB-0118             
1 47264U 20100G   26046.27646476  .00000391  00000+0  10516-2 0  9993
2 47264  87.8970  14.8458 0002217  80.2373 279.9006 13.12445606248738
ONEWEB-0119             
1 47265U 20100H   26045.92070477 -.00000071  00000+0 -23290-3 0  9998
2 47265  87.8960  14.9442 0001879  82.4632 277.6710 13.12442180248660
ONEWEB-0120             
1 47266U 20100J   26045.86831619 -.00000303  00000+0 -87865-3 0  9991
2 47266  87.8960  14.9560 0001938  84.8671 275.2679 13.12444684248688
ONEWEB-0121             
1 47267U 20100K   26045.93255640 -.00000366  00000+0 -10516-2 0  9991
2 47267  87.8969  14.9171 0001649  83.3319 276.7997 13.12443134248608
ONEWEB-0122             
1 47268U 20100L   26045.92662994 -.00000320  00000+0 -92578-3 0  9994
2 47268  87.8970  14.9200 0001840  89.4193 270.7146 13.12441852248519
ONEWEB-0123             
1 47269U 20100M   26045.92239625 -.00000110  00000+0 -34087-3 0  9994
2 47269  87.8960  14.9429 0001942  80.3012 279.8336 13.12442615248659
