[{"OBJECT_NAME":"ONEWEB-0050","OBJECT_ID":"2020-020AF","EPOCH":"2026-02-15T01:22:54.996672","MEAN_MOTION":14.89913612,"ECCENTRICITY":0.00055279,"INCLINATION":88.9192,"RA_OF_ASC_NODE":249.8549,"ARG_OF_PERICENTER":69.2044,"MEAN_ANOMALY":290.9777,"EPHEMERIS_TYPE":0,"CLASSIFICATION_TYPE":"U","NORAD_CAT_ID":45453,"ELEMENT_SET_NO":999,"REV_AT_EPOCH":32219,"BSTAR":0.00019145527,"MEAN_MOTION_DOT":1.863e-5,"MEAN_MOTION_DDOT":0},{"OBJECT_NAME":"ONEWEB-0034","OBJECT_ID":"2020-020AG","EPOCH":"2026-02-15T01:12:56.775168","MEAN_MOTION":13.11416858,"ECCENTRICITY":0.00018483,"INCLINATION":87.883,"RA_OF_ASC_NODE":45.3515,"ARG_OF_PERICENTER":88.2552,"MEAN_ANOMALY":271.8788,"EPHEMERIS_TYPE":0,"CLASSIFICATION_TYPE":"U","NORAD_CAT_ID":45454,"ELEMENT_SET_NO":999,"REV_AT_EPOCH":28658,"BSTAR":0.00047448037,"MEAN_MOTION_DOT":1.81e-6,"MEAN_MOTION_DDOT":0},{"OBJECT_NAME":"ONEWEB-0060","OBJECT_ID":"2020-020AH","EPOCH":"2026-02-15T00:31:26.290848","MEAN_MOTION":13.11416276,"ECCENTRICITY":8.693e-5,"INCLINATION":87.8822,"RA_OF_ASC_NODE":45.3701,"ARG_OF_PERICENTER":76.9242,"MEAN_ANOMALY":283.1983,"EPHEMERIS_TYPE":0,"CLASSIFICATION_TYPE":"U","NORAD_CAT_ID":45455,"ELEMENT_SET_NO":999,"REV_AT_EPOCH":28653,"BSTAR":-0.0018638506,"MEAN_MOTION_DOT":-6.48e-6,"MEAN_MOTION_DDOT":0},{"OBJECT_NAME":"ONEWEB-0086","OBJECT_ID":"2020-020AJ","EPOCH":"2026-02-15T00:00:56.155680","MEAN_MOTION":13.11415537,"ECCENTRICITY":0.00012899,"INCLINATION":87.8833,"RA_OF_ASC_NODE":45.3592,"ARG_OF_PERICENTER":105.058,"MEAN_ANOMALY":255.0691,"EPHEMERIS_TYPE":0,"CLASSIFICATION_TYPE":"U","NORAD_CAT_ID":45456,"ELEMENT_SET_NO":999,"REV_AT_EPOCH":28659,"BSTAR":0.00016057322,"MEAN_MOTION_DOT":7.0e-7,"MEAN_MOTION_DDOT":0},{"OBJECT_NAME":"ONEWEB-0088","OBJECT_ID":"2020-020AK","EPOCH":"2026-02-14T23:29:12.523488","MEAN_MOTION":13.11417631,"ECCENTRICITY":0.0001909,"INCLINATION":87.8848,"RA_OF_ASC_NODE":45.3254,"ARG_OF_PERICENTER":80.231,"MEAN_ANOMALY":279.9033,"EPHEMERIS_TYPE":0,"CLASSIFICATION_TYPE":"U","NORAD_CAT_ID":45457,"ELEMENT_SET_NO":999,"REV_AT_EPOCH":28652,"BSTAR":0.0016611,"MEAN_MOTION_DOT":6.01e-6,"MEAN_MOTION_DDOT":0},{"OBJECT_NAME":"ONEWEB-0102","OBJECT_ID":"2020-100A","EPOCH":"2026-02-14T22:13:07.981248","MEAN_MOTION":13.12442241,"ECCENTRICITY":0.00016923,"INCLINATION":87.896,"RA_OF_ASC_NODE":14.9477,"ARG_OF_PERICENTER":87.941,"MEAN_ANOMALY":272.1913,"EPHEMERIS_TYPE":0,"CLASSIFICATION_TYPE":"U","NORAD_CAT_ID":47258,"ELEMENT_SET_NO":999,"REV_AT_EPOCH":24869,"BSTAR":-0.00062254658,"MEAN_MOTION_DOT":-2.11e-6,"MEAN_MOTION_DDOT":0},{"OBJECT_NAME":"ONEWEB-0109","OBJECT_ID":"2020-100B","EPOCH":"2026-02-14T22:25:19.235424","MEAN_MOTION":13.12442415,"ECCENTRICITY":0.00018969,"INCLINATION":87.897,"RA_OF_ASC_NODE":14.9184,"ARG_OF_PERICENTER":87.5119,"MEAN_ANOMALY":272.6227,"EPHEMERIS_TYPE":0,"CLASSIFICATION_TYPE":"U","NORAD_CAT_ID":47259,"ELEMENT_SET_NO":999,"REV_AT_EPOCH":24852,"BSTAR":-0.0014067773,"MEAN_MOTION_DOT":-4.93e-6,"MEAN_MOTION_DDOT":0},{"OBJECT_NAME":"ONEWEB-0110","OBJECT_ID":"2020-100C","EPOCH":"2026-02-15T06:23:30.107616","MEAN_MOTION":13.12445015,"ECCENTRICITY":0.00016139,"INCLINATION":87.8968,"RA_OF_ASC_NODE":14.837,"ARG_OF_PERICENTER":87.1318,"MEAN_ANOMALY":272.9995,"EPHEMERIS_TYPE":0,"CLASSIFICATION_TYPE":"U","NORAD_CAT_ID":47260,"ELEMENT_SET_NO":999,"REV_AT_EPOCH":24873,"BSTAR":0.00065353784,"MEAN_MOTION_DOT":2.48e-6,"MEAN_MOTION_DDOT":0},{"OBJECT_NAME":"ONEWEB-0111","OBJECT_ID":"2020-100D","EPOCH":"2026-02-14T21:58:29.386560","MEAN_MOTION":13.12441852,"ECCENTRICITY":0.00017581,"INCLINATION":87.897,"RA_OF_ASC_NODE":14.9254,"ARG_OF_PERICENTER":79.2665,"MEAN_ANOMALY":280.8661,"EPHEMERIS_TYPE":0,"CLASSIFICATION_TYPE":"U","NORAD_CAT_ID":47261,"ELEMENT_SET_NO":999,"REV_AT_EPOCH":24852,"BSTAR":0.00017975973,"MEAN_MOTION_DOT":7.7e-7,"MEAN_MOTION_DDOT":0},{"OBJECT_NAME":"ONEWEB-0114","OBJECT_ID":"2020-100E","EPOCH":"2026-02-14T20:52:37.767648","MEAN_MOTION":13.1244547,"ECCENTRICITY":0.00021704,"INCLINATION":87.8968,"RA_OF_ASC_NODE":14.9301,"ARG_OF_PERICENTER":84.6062,"MEAN_ANOMALY":275.5314,"EPHEMERIS_TYPE":0,"CLASSIFICATION_TYPE":"U","NORAD_CAT_ID":47262,"ELEMENT_SET_NO":999,"REV_AT_EPOCH":24847,"BSTAR":-0.00065598779,"MEAN_MOTION_DOT":-2.23e-6,"MEAN_MOTION_DDOT":0},{"OBJECT_NAME":"ONEWEB-0117","OBJECT_ID":"2020-100F","EPOCH":"2026-02-14T22:30:12.013920","MEAN_MOTION":13.12443926,"ECCENTRICITY":0.00018432,"INCLINATION":87.8968,"RA_OF_ASC_NODE":14.9118,"ARG_OF_PERICENTER":83.0941,"MEAN_ANOMALY":277.0397,"EPHEMERIS_TYPE":0,"CLASSIFICATION_TYPE":"U","NORAD_CAT_ID":47263,"ELEMENT_SET_NO":999,"REV_AT_EPOCH":24849,"BSTAR":-0.0011526558,"MEAN_MOTION_DOT":-4.02e-6,"MEAN_MOTION_DDOT":0},{"OBJECT_NAME":"ONEWEB-0118","OBJECT_ID":"2020-100G","EPOCH":"2026-02-15T06:38:06.555264","MEAN_MOTION":13.12445606,"ECCENTRICITY":0.00022177,"INCLINATION":87.897,"RA_OF_ASC_NODE":14.8458,"ARG_OF_PERICENTER":80.2373,"MEAN_ANOMALY":279.9006,"EPHEMERIS_TYPE":0,"CLASSIFICATION_TYPE":"U","NORAD_CAT_ID":47264,"ELEMENT_SET_NO":999,"REV_AT_EPOCH":24873,"BSTAR":0.00105158,"MEAN_MOTION_DOT":3.91e-6,"MEAN_MOTION_DDOT":0},{"OBJECT_NAME":"ONEWEB-0119","OBJECT_ID":"2020-100H","EPOCH":"2026-02-14T22:05:48.892128","MEAN_MOTION":13.1244218,"ECCENTRICITY":0.00018794,"INCLINATION":87.896,"RA_OF_ASC_NODE":14.9442,"ARG_OF_PERICENTER":82.4632,"MEAN_ANOMALY":277.671,"EPHEMERIS_TYPE":0,"CLASSIFICATION_TYPE":"U","NORAD_CAT_ID":47265,"ELEMENT_SET_NO":999,"REV_AT_EPOCH":24866,"BSTAR":-0.00023290265,"MEAN_MOTION_DOT":-7.1e-7,"MEAN_MOTION_DDOT":0},{"OBJECT_NAME":"ONEWEB-0120","OBJECT_ID":"2020-100J","EPOCH":"2026-02-14T20:50:22.518816","MEAN_MOTION":13.12444684,"ECCENTRICITY":0.00019382,"INCLINATION":87.896,"RA_OF_ASC_NODE":14.956,"ARG_OF_PERICENTER":84.8671,"MEAN_ANOMALY":275.2679,"EPHEMERIS_TYPE":0,"CLASSIFICATION_TYPE":"U","NORAD_CAT_ID":47266,"ELEMENT_SET_NO":999,"REV_AT_EPOCH":24868,"BSTAR":-0.00087865435,"MEAN_MOTION_DOT":-3.03e-6,"MEAN_MOTION_DDOT":0},{"OBJECT_NAME":"ONEWEB-0121","OBJECT_ID":"2020-100K","EPOCH":"2026-02-14T22:22:52.872960","MEAN_MOTION":13.12443134,"ECCENTRICITY":0.00016493,"INCLINATION":87.8969,"RA_OF_ASC_NODE":14.9171,"ARG_OF_PERICENTER":83.3319,"MEAN_ANOMALY":276.7997,"EPHEMERIS_TYPE":0,"CLASSIFICATION_TYPE":"U","NORAD_CAT_ID":47267,"ELEMENT_SET_NO":999,"REV_AT_EPOCH":24860,"BSTAR":-0.0010516499,"MEAN_MOTION_DOT":-3.66e-6,"MEAN_MOTION_DDOT":0},{"OBJECT_NAME":"ONEWEB-0122","OBJECT_ID":"2020-100L","EPOCH":"2026-02-14T22:14:20.826816","MEAN_MOTION":13.12441852,"ECCENTRICITY":0.00018409,"INCLINATION":87.897,"RA_OF_ASC_NODE":14.92,"ARG_OF_PERICENTER":89.4193,"MEAN_ANOMALY":270.7146,"EPHEMERIS_TYPE":0,"CLASSIFICATION_TYPE":"U","NORAD_CAT_ID":47268,"ELEMENT_SET_NO":999,"REV_AT_EPOCH":24851,"BSTAR":-0.0009257829,"MEAN_MOTION_DOT":-3.2e-6,"MEAN_MOTION_DDOT":0},{"OBJECT_NAME":"ONEWEB-0123","OBJECT_ID":"2020-100M","EPOCH":"2026-02-14T22:08:15.036000","MEAN_MOTION":13.12442615,"ECCENTRICITY":0.00019424,"INCLINATION":87.896,"RA_OF_ASC_NODE":14.9429,"ARG_OF_PERICENTER":80.3012,"MEAN_ANOMALY":279.8336,"EPHEMERIS_TYPE":0,"CLASSIFICATION_TYPE":"U","NORAD_CAT_ID":47269,"ELEMENT_SET_NO":999,"REV_AT_EPOCH":24865,"BSTAR":-0.0003408725,"MEAN_MOTION_DOT":-1.1e-6,"MEAN_MOTION_DDOT":0}]
